{
  "type": "FeatureCollection",
  "features": [
    {
      "type": "Feature",
      "properties": {
        "norad_id": 66682,
        "name": "TRANSPORTER-15 S",
        "group": "last-30-days",
        "lat": 14.847665235772988,
        "lon": -110.79349402943079,
        "alt_km": 514.9622505678271,
        "timestamp": "2025-12-21T14:40:46.633187+00:00",
        "meta_object_name": "TRANSPORTER-15 S",
        "meta_object_id": "2025-276S",
        "meta_epoch": "2025-12-21T06:02:23.065440",
        "meta_mean_motion": 15.17100887,
        "meta_eccentricity": 0.00047773,
        "meta_inclination": 97.4463,
        "meta_ra_of_asc_node": 66.8658,
        "meta_arg_of_pericenter": 245.9287,
        "meta_mean_anomaly": 114.1447,
        "meta_ephemeris_type": 0,
        "meta_classification_type": "U",
        "meta_norad_cat_id": 66682,
        "meta_element_set_no": 999,
        "meta_rev_at_epoch": 341,
        "meta_bstar": 0.00042076024,
        "meta_mean_motion_dot": 8.277e-05,
        "meta_mean_motion_ddot": 0,
        "tle_line1": "1 66682U 25276S   25355.25165585  .00008277  00000+0  42076-3 0  9992",
        "tle_line2": "2 66682  97.4463  66.8658 0004777 245.9287 114.1447 15.17100887  3412"
      },
      "geometry": {
        "type": "Point",
        "coordinates": [
          -110.79349402943079,
          14.847665235772988
        ]
      }
    },
    {
      "type": "Feature",
      "properties": {
        "norad_id": 66683,
        "name": "TRANSPORTER-15 T",
        "group": "last-30-days",
        "lat": 18.808194916611914,
        "lon": -110.23070762635611,
        "alt_km": 515.0715666326096,
        "timestamp": "2025-12-21T14:40:46.633197+00:00",
        "meta_object_name": "TRANSPORTER-15 T",
        "meta_object_id": "2025-276T",
        "meta_epoch": "2025-12-21T06:03:24.069024",
        "meta_mean_motion": 15.16991103,
        "meta_eccentricity": 0.00046192,
        "meta_inclination": 97.4456,
        "meta_ra_of_asc_node": 66.8635,
        "meta_arg_of_pericenter": 248.7051,
        "meta_mean_anomaly": 111.3689,
        "meta_ephemeris_type": 0,
        "meta_classification_type": "U",
        "meta_norad_cat_id": 66683,
        "meta_element_set_no": 999,
        "meta_rev_at_epoch": 341,
        "meta_bstar": 0.00040337903,
        "meta_mean_motion_dot": 7.907e-05,
        "meta_mean_motion_ddot": 0,
        "tle_line1": "1 66683U 25276T   25355.25236191  .00007907  00000+0  40338-3 0  9993",
        "tle_line2": "2 66683  97.4456  66.8635 0004619 248.7051 111.3689 15.16991103  3410"
      },
      "geometry": {
        "type": "Point",
        "coordinates": [
          -110.23070762635611,
          18.808194916611914
        ]
      }
    },
    {
      "type": "Feature",
      "properties": {
        "norad_id": 66684,
        "name": "TRANSPORTER-15 U",
        "group": "last-30-days",
        "lat": 3.107406736844657,
        "lon": -112.36307194120224,
        "alt_km": 515.7515560853462,
        "timestamp": "2025-12-21T14:40:46.633207+00:00",
        "meta_object_name": "TRANSPORTER-15 U",
        "meta_object_id": "2025-276U",
        "meta_epoch": "2025-12-21T04:24:21.089088",
        "meta_mean_motion": 15.17264778,
        "meta_eccentricity": 0.00045307,
        "meta_inclination": 97.4481,
        "meta_ra_of_asc_node": 66.8092,
        "meta_arg_of_pericenter": 249.3029,
        "meta_mean_anomaly": 110.7719,
        "meta_ephemeris_type": 0,
        "meta_classification_type": "U",
        "meta_norad_cat_id": 66684,
        "meta_element_set_no": 999,
        "meta_rev_at_epoch": 340,
        "meta_bstar": 0.00031225223,
        "meta_mean_motion_dot": 6.152e-05,
        "meta_mean_motion_ddot": 0,
        "tle_line1": "1 66684U 25276U   25355.18357742  .00006152  00000+0  31225-3 0  9998",
        "tle_line2": "2 66684  97.4481  66.8092 0004530 249.3029 110.7719 15.17264778  3408"
      },
      "geometry": {
        "type": "Point",
        "coordinates": [
          -112.36307194120224,
          3.107406736844657
        ]
      }
    },
    {
      "type": "Feature",
      "properties": {
        "norad_id": 66685,
        "name": "TRANSPORTER-15 V",
        "group": "last-30-days",
        "lat": -2.1269429518437164,
        "lon": -113.06082170886611,
        "alt_km": 519.3283764417456,
        "timestamp": "2025-12-21T14:40:46.633220+00:00",
        "meta_object_name": "TRANSPORTER-15 V",
        "meta_object_id": "2025-276V",
        "meta_epoch": "2025-12-21T05:57:49.238784",
        "meta_mean_motion": 15.16995747,
        "meta_eccentricity": 0.00019418,
        "meta_inclination": 97.4432,
        "meta_ra_of_asc_node": 66.8608,
        "meta_arg_of_pericenter": 297.4971,
        "meta_mean_anomaly": 62.6065,
        "meta_ephemeris_type": 0,
        "meta_classification_type": "U",
        "meta_norad_cat_id": 66685,
        "meta_element_set_no": 999,
        "meta_rev_at_epoch": 341,
        "meta_bstar": -0.011479983,
        "meta_mean_motion_dot": -0.00220006,
        "meta_mean_motion_ddot": 0,
        "tle_line1": "1 66685U 25276V   25355.24848656 -.00220006  00000+0 -11480-1 0  9992",
        "tle_line2": "2 66685  97.4432  66.8608 0001941 297.4971  62.6065 15.16995747  3417"
      },
      "geometry": {
        "type": "Point",
        "coordinates": [
          -113.06082170886611,
          -2.1269429518437164
        ]
      }
    },
    {
      "type": "Feature",
      "properties": {
        "norad_id": 66686,
        "name": "TRANSPORTER-15 W",
        "group": "last-30-days",
        "lat": 14.30953685443686,
        "lon": -110.86818337515054,
        "alt_km": 515.7092536557011,
        "timestamp": "2025-12-21T14:40:46.633231+00:00",
        "meta_object_name": "TRANSPORTER-15 W",
        "meta_object_id": "2025-276W",
        "meta_epoch": "2025-12-21T06:02:12.322464",
        "meta_mean_motion": 15.16985305,
        "meta_eccentricity": 0.00040278,
        "meta_inclination": 97.4461,
        "meta_ra_of_asc_node": 66.8663,
        "meta_arg_of_pericenter": 251.041,
        "meta_mean_anomaly": 109.0387,
        "meta_ephemeris_type": 0,
        "meta_classification_type": "U",
        "meta_norad_cat_id": 66686,
        "meta_element_set_no": 999,
        "meta_rev_at_epoch": 341,
        "meta_bstar": 0.00035146364,
        "meta_mean_motion_dot": 6.878e-05,
        "meta_mean_motion_ddot": 0,
        "tle_line1": "1 66686U 25276W   25355.25153151  .00006878  00000+0  35146-3 0  9997",
        "tle_line2": "2 66686  97.4461  66.8663 0004027 251.0410 109.0387 15.16985305  3415"
      },
      "geometry": {
        "type": "Point",
        "coordinates": [
          -110.86818337515054,
          14.30953685443686
        ]
      }
    },
    {
      "type": "Feature",
      "properties": {
        "norad_id": 66687,
        "name": "TRANSPORTER-15 X",
        "group": "last-30-days",
        "lat": 41.784990340741885,
        "lon": -106.10750158257281,
        "alt_km": 511.52450784039775,
        "timestamp": "2025-12-21T14:40:46.633243+00:00",
        "meta_object_name": "TRANSPORTER-15 X",
        "meta_object_id": "2025-276X",
        "meta_epoch": "2025-12-21T02:59:28.591008",
        "meta_mean_motion": 15.16654452,
        "meta_eccentricity": 0.00084033,
        "meta_inclination": 97.4391,
        "meta_ra_of_asc_node": 66.7094,
        "meta_arg_of_pericenter": 60.2226,
        "meta_mean_anomaly": 299.9842,
        "meta_ephemeris_type": 0,
        "meta_classification_type": "U",
        "meta_norad_cat_id": 66687,
        "meta_element_set_no": 999,
        "meta_rev_at_epoch": 339,
        "meta_bstar": 0.00045683525,
        "meta_mean_motion_dot": 8.884e-05,
        "meta_mean_motion_ddot": 0,
        "tle_line1": "1 66687U 25276X   25355.12463647  .00008884  00000+0  45684-3 0  9995",
        "tle_line2": "2 66687  97.4391  66.7094 0008403  60.2226 299.9842 15.16654452  3390"
      },
      "geometry": {
        "type": "Point",
        "coordinates": [
          -106.10750158257281,
          41.784990340741885
        ]
      }
    },
    {
      "type": "Feature",
      "properties": {
        "norad_id": 66688,
        "name": "TRANSPORTER-15 Y",
        "group": "last-30-days",
        "lat": 9.7182622725231,
        "lon": -111.50113556700285,
        "alt_km": 516.2055757201579,
        "timestamp": "2025-12-21T14:40:46.633253+00:00",
        "meta_object_name": "TRANSPORTER-15 Y",
        "meta_object_id": "2025-276Y",
        "meta_epoch": "2025-12-21T04:26:01.736448",
        "meta_mean_motion": 15.17055013,
        "meta_eccentricity": 0.00036161,
        "meta_inclination": 97.4439,
        "meta_ra_of_asc_node": 66.7965,
        "meta_arg_of_pericenter": 255.6582,
        "meta_mean_anomaly": 104.425,
        "meta_ephemeris_type": 0,
        "meta_classification_type": "U",
        "meta_norad_cat_id": 66688,
        "meta_element_set_no": 999,
        "meta_rev_at_epoch": 340,
        "meta_bstar": 0.00030230981,
        "meta_mean_motion_dot": 5.918e-05,
        "meta_mean_motion_ddot": 0,
        "tle_line1": "1 66688U 25276Y   25355.18474232  .00005918  00000+0  30231-3 0  9991",
        "tle_line2": "2 66688  97.4439  66.7965 0003616 255.6582 104.4250 15.17055013  3401"
      },
      "geometry": {
        "type": "Point",
        "coordinates": [
          -111.50113556700285,
          9.7182622725231
        ]
      }
    }
  ]
}